start=new Date('2022-10-19T00:00:00.000Z').valueOf();
sats=[{"LAUNCH_DATE":"2020-11-25","DECAY_DATE":null,"ECCENTRICITY":"0.00012770","MEAN_ANOMALY":"241.7527","COUNTRY_CODE":"US","TLE_LINE2":"2 47173  53.0577  98.9796 0001277 118.3591 241.7527 15.06386175105257","PERIAPSIS":"546.372","OBJECT_ID":"2020-088BD","FILE":"3621750","ELEMENT_SET_NO":"999","MEAN_MOTION":"15.06386175","CLASSIFICATION_TYPE":"U","ARG_OF_PERICENTER":"118.3591","RCS_SIZE":"LARGE","APOAPSIS":"548.140","REF_FRAME":"TEME","RA_OF_ASC_NODE":"98.9796","MEAN_MOTION_DDOT":"0.0000000000000","PERIOD":"95.593","OBJECT_TYPE":"PAYLOAD","MEAN_MOTION_DOT":"0.00000417","CENTER_NAME":"EARTH","EPHEMERIS_TYPE":"0","EPOCH":"2022-10-18T17:51:21.263040","OBJECT_NAME":"STARLINK-1890","NORAD_CAT_ID":"47173","INCLINATION":"53.0577","SITE":"AFETR","SEMIMAJOR_AXIS":"6925.391","BSTAR":"0.00004692600000","TLE_LINE1":"1 47173U 20088BD  22291.74399610  .00000417  00000-0  46926-4 0  9998","MEAN_ELEMENT_THEORY":"SGP4","REV_AT_EPOCH":"10525","GP_ID":"215528316","TIME_SYSTEM":"UTC"},{"PERIAPSIS":"546.500","TLE_LINE2":"2 47174  53.0551  98.9120 0001185 110.8256 249.2860 15.06365068105255","COUNTRY_CODE":"US","MEAN_ANOMALY":"249.2860","ECCENTRICITY":"0.00011850","DECAY_DATE":null,"LAUNCH_DATE":"2020-11-25","MEAN_MOTION_DDOT":"0.0000000000000","RA_OF_ASC_NODE":"98.9120","REF_FRAME":"TEME","RCS_SIZE":"LARGE","APOAPSIS":"548.141","ARG_OF_PERICENTER":"110.8256","CLASSIFICATION_TYPE":"U","FILE":"3621750","MEAN_MOTION":"15.06365068","ELEMENT_SET_NO":"999","OBJECT_ID":"2020-088BE","INCLINATION":"53.0551","NORAD_CAT_ID":"47174","OBJECT_NAME":"STARLINK-1891","EPOCH":"2022-10-18T18:07:17.968512","EPHEMERIS_TYPE":"0","CENTER_NAME":"EARTH","MEAN_MOTION_DOT":"0.00005897","OBJECT_TYPE":"PAYLOAD","PERIOD":"95.594","TIME_SYSTEM":"UTC","GP_ID":"215528076","REV_AT_EPOCH":"10525","MEAN_ELEMENT_THEORY":"SGP4","TLE_LINE1":"1 47174U 20088BE  22291.75506908  .00005897  00000-0  41482-3 0  9998","BSTAR":"0.00041482000000","SEMIMAJOR_AXIS":"6925.456","SITE":"AFETR"},{"SITE":"AFETR","SEMIMAJOR_AXIS":"6925.368","BSTAR":"-0.00002929900000","GP_ID":"215527324","TIME_SYSTEM":"UTC","TLE_LINE1":"1 47175U 20088BF  22291.68686865 -.00000718  00000-0 -29299-4 0  9994","REV_AT_EPOCH":"10552","MEAN_ELEMENT_THEORY":"SGP4","OBJECT_TYPE":"PAYLOAD","PERIOD":"95.593","CENTER_NAME":"EARTH","MEAN_MOTION_DOT":"-0.00000718","OBJECT_NAME":"STARLINK-1895","EPHEMERIS_TYPE":"0","EPOCH":"2022-10-18T16:29:05.451360","NORAD_CAT_ID":"47175","INCLINATION":"53.0547","ELEMENT_SET_NO":"999","FILE":"3621750","MEAN_MOTION":"15.06393673","OBJECT_ID":"2020-088BF","CLASSIFICATION_TYPE":"U","ARG_OF_PERICENTER":"87.1521","REF_FRAME":"TEME","APOAPSIS":"548.164","RCS_SIZE":"LARGE","MEAN_MOTION_DDOT":"0.0000000000000","RA_OF_ASC_NODE":"79.2361","DECAY_DATE":null,"LAUNCH_DATE":"2020-11-25","ECCENTRICITY":"0.00013450","MEAN_ANOMALY":"272.9622","TLE_LINE2":"2 47175  53.0547  79.2361 0001345  87.1521 272.9622 15.06393673105521","PERIAPSIS":"546.301","COUNTRY_CODE":"US"},{"SEMIMAJOR_AXIS":"6925.367","SITE":"AFETR","GP_ID":"215527574","TIME_SYSTEM":"UTC","TLE_LINE1":"1 47177U 20088BH  22291.73754647  .00000893  00000-0  78836-4 0  9999","REV_AT_EPOCH":"10539","MEAN_ELEMENT_THEORY":"SGP4","BSTAR":"0.00007883600000","MEAN_MOTION_DOT":"0.00000893","CENTER_NAME":"EARTH","OBJECT_TYPE":"PAYLOAD","PERIOD":"95.593","NORAD_CAT_ID":"47177","INCLINATION":"53.0544","OBJECT_NAME":"STARLINK-1907","EPHEMERIS_TYPE":"0","EPOCH":"2022-10-18T17:42:04.015008","ARG_OF_PERICENTER":"69.6862","MEAN_MOTION":"15.06393959","FILE":"3621750","ELEMENT_SET_NO":"999","OBJECT_ID":"2020-088BH","CLASSIFICATION_TYPE":"U","MEAN_MOTION_DDOT":"0.0000000000000","RA_OF_ASC_NODE":"89.0107","REF_FRAME":"TEME","RCS_SIZE":"LARGE","APOAPSIS":"548.168","ECCENTRICITY":"0.00013510","DECAY_DATE":null,"LAUNCH_DATE":"2020-11-25","TLE_LINE2":"2 47177  53.0544  89.0107 0001351  69.6862 290.4272 15.06393959105395","PERIAPSIS":"546.296","COUNTRY_CODE":"US","MEAN_ANOMALY":"290.4272"},{"OBJECT_TYPE":"PAYLOAD","PERIOD":"95.592","CENTER_NAME":"EARTH","MEAN_MOTION_DOT":"0.00001944","EPOCH":"2022-10-18T10:52:02.538624","EPHEMERIS_TYPE":"0","OBJECT_NAME":"STARLINK-1912","INCLINATION":"53.0553","NORAD_CAT_ID":"47178","SITE":"AFETR","SEMIMAJOR_AXIS":"6925.356","BSTAR":"0.00014935000000","REV_AT_EPOCH":"10520","MEAN_ELEMENT_THEORY":"SGP4","TLE_LINE1":"1 47178U 20088BJ  22291.45280716  .00001944  00000-0  14935-3 0  9997","TIME_SYSTEM":"UTC","GP_ID":"215496484","LAUNCH_DATE":"2020-11-25","DECAY_DATE":null,"ECCENTRICITY":"0.00014170","MEAN_ANOMALY":"250.0841","COUNTRY_CODE":"US","PERIAPSIS":"546.240","TLE_LINE2":"2 47178  53.0553 100.2895 0001417 110.0300 250.0841 15.06397466105208","CLASSIFICATION_TYPE":"U","FILE":"3621474","OBJECT_ID":"2020-088BJ","ELEMENT_SET_NO":"999","MEAN_MOTION":"15.06397466","ARG_OF_PERICENTER":"110.0300","RCS_SIZE":"LARGE","APOAPSIS":"548.203","REF_FRAME":"TEME","RA_OF_ASC_NODE":"100.2895","MEAN_MOTION_DDOT":"0.0000000000000"},{"RA_OF_ASC_NODE":"108.8550","MEAN_MOTION_DDOT":"0.0000000000000","APOAPSIS":"548.196","RCS_SIZE":"LARGE","REF_FRAME":"TEME","ARG_OF_PERICENTER":"96.8099","OBJECT_ID":"2020-088BK","FILE":"3621750","ELEMENT_SET_NO":"999","MEAN_MOTION":"15.06387298","CLASSIFICATION_TYPE":"U","COUNTRY_CODE":"US","TLE_LINE2":"2 47179  53.0545 108.8550 0001362  96.8099 263.3045 15.06387298105112","PERIAPSIS":"546.309","MEAN_ANOMALY":"263.3045","ECCENTRICITY":"0.00013620","LAUNCH_DATE":"2020-11-25","DECAY_DATE":null,"TLE_LINE1":"1 47179U 20088BK  22291.77257254  .00001475  00000-0  11791-3 0  9990","MEAN_ELEMENT_THEORY":"SGP4","REV_AT_EPOCH":"10511","GP_ID":"215528576","TIME_SYSTEM":"UTC","BSTAR":"0.00011791000000","SEMIMAJOR_AXIS":"6925.387","SITE":"AFETR","NORAD_CAT_ID":"47179","INCLINATION":"53.0545","EPHEMERIS_TYPE":"0","EPOCH":"2022-10-18T18:32:30.267456","OBJECT_NAME":"STARLINK-1913","MEAN_MOTION_DOT":"0.00001475","CENTER_NAME":"EARTH","OBJECT_TYPE":"PAYLOAD","PERIOD":"95.593"},{"EPHEMERIS_TYPE":"0","EPOCH":"2022-10-18T16:18:28.183968","OBJECT_NAME":"STARLINK-1927","NORAD_CAT_ID":"47181","INCLINATION":"53.0544","PERIOD":"95.592","OBJECT_TYPE":"PAYLOAD","CENTER_NAME":"EARTH","MEAN_MOTION_DOT":"0.00001955","BSTAR":"0.00015014000000","TLE_LINE1":"1 47181U 20088BM  22291.67949287  .00001955  00000-0  15014-3 0  9991","REV_AT_EPOCH":"10551","MEAN_ELEMENT_THEORY":"SGP4","GP_ID":"215526825","TIME_SYSTEM":"UTC","SITE":"AFETR","SEMIMAJOR_AXIS":"6925.362","MEAN_ANOMALY":"257.6760","COUNTRY_CODE":"US","TLE_LINE2":"2 47181  53.0544  79.2746 0001252 102.4369 257.6760 15.06395708105513","PERIAPSIS":"546.360","LAUNCH_DATE":"2020-11-25","DECAY_DATE":null,"ECCENTRICITY":"0.00012520","RCS_SIZE":"LARGE","APOAPSIS":"548.094","REF_FRAME":"TEME","RA_OF_ASC_NODE":"79.2746","MEAN_MOTION_DDOT":"0.0000000000000","OBJECT_ID":"2020-088BM","FILE":"3621750","ELEMENT_SET_NO":"999","MEAN_MOTION":"15.06395708","CLASSIFICATION_TYPE":"U","ARG_OF_PERICENTER":"102.4369"},{"SEMIMAJOR_AXIS":"6925.377","SITE":"AFETR","REV_AT_EPOCH":"9646","MEAN_ELEMENT_THEORY":"SGP4","TLE_LINE1":"1 47350U 21005B   22291.78454590 -.00000763  00000-0 -32306-4 0  9991","TIME_SYSTEM":"UTC","GP_ID":"215528334","BSTAR":"-0.00003230600000","MEAN_MOTION_DOT":"-0.00000763","CENTER_NAME":"EARTH","PERIOD":"95.593","OBJECT_TYPE":"PAYLOAD","INCLINATION":"53.0536","NORAD_CAT_ID":"47350","EPOCH":"2022-10-18T18:49:44.765760","EPHEMERIS_TYPE":"0","OBJECT_NAME":"STARLINK-2011","ARG_OF_PERICENTER":"83.0725","CLASSIFICATION_TYPE":"U","FILE":"3621750","MEAN_MOTION":"15.06390730","ELEMENT_SET_NO":"999","OBJECT_ID":"2021-005B","RA_OF_ASC_NODE":"218.8010","MEAN_MOTION_DDOT":"0.0000000000000","RCS_SIZE":"LARGE","APOAPSIS":"548.261","REF_FRAME":"TEME","ECCENTRICITY":"0.00014720","LAUNCH_DATE":"2021-01-20","DECAY_DATE":null,"COUNTRY_CODE":"US","PERIAPSIS":"546.223","TLE_LINE2":"2 47350  53.0536 218.8010 0001472  83.0725 277.0431 15.06390730 96465","MEAN_ANOMALY":"277.0431"},{"BSTAR":"-0.00004159700000","MEAN_ELEMENT_THEORY":"SGP4","REV_AT_EPOCH":"9702","TLE_LINE1":"1 47351U 21005C   22291.81308838 -.00000901  00000-0 -41597-4 0  9995","TIME_SYSTEM":"UTC","GP_ID":"215528094","SITE":"AFETR","SEMIMAJOR_AXIS":"6925.384","EPOCH":"2022-10-18T19:30:50.836032","EPHEMERIS_TYPE":"0","OBJECT_NAME":"STARLINK-2017","INCLINATION":"53.0545","NORAD_CAT_ID":"47351","OBJECT_TYPE":"PAYLOAD","PERIOD":"95.593","CENTER_NAME":"EARTH","MEAN_MOTION_DOT":"-0.00000901","APOAPSIS":"548.229","RCS_SIZE":"LARGE","REF_FRAME":"TEME","RA_OF_ASC_NODE":"178.6529","MEAN_MOTION_DDOT":"0.0000000000000","CLASSIFICATION_TYPE":"U","FILE":"3621750","MEAN_MOTION":"15.06388547","ELEMENT_SET_NO":"999","OBJECT_ID":"2021-005C","ARG_OF_PERICENTER":"107.2876","MEAN_ANOMALY":"252.8268","COUNTRY_CODE":"US","PERIAPSIS":"546.268","TLE_LINE2":"2 47351  53.0545 178.6529 0001416 107.2876 252.8268 15.06388547 97023","LAUNCH_DATE":"2021-01-20","DECAY_DATE":null,"ECCENTRICITY":"0.00014160"},{"LAUNCH_DATE":"2021-01-20","DECAY_DATE":null,"ECCENTRICITY":"0.00013310","MEAN_ANOMALY":"273.9808","COUNTRY_CODE":"US","PERIAPSIS":"546.346","TLE_LINE2":"2 47352  53.0538 218.5853 0001331  86.1333 273.9808 15.06382179 96465","CLASSIFICATION_TYPE":"U","FILE":"3621750","ELEMENT_SET_NO":"999","MEAN_MOTION":"15.06382179","OBJECT_ID":"2021-005D","ARG_OF_PERICENTER":"86.1333","RCS_SIZE":"LARGE","APOAPSIS":"548.190","REF_FRAME":"TEME","RA_OF_ASC_NODE":"218.5853","MEAN_MOTION_DDOT":"0.0000000000000","PERIOD":"95.593","OBJECT_TYPE":"PAYLOAD","MEAN_MOTION_DOT":"-0.00001673","CENTER_NAME":"EARTH","EPOCH":"2022-10-18T19:58:44.805792","EPHEMERIS_TYPE":"0","OBJECT_NAME":"STARLINK-2034","INCLINATION":"53.0538","NORAD_CAT_ID":"47352","SITE":"AFETR","SEMIMAJOR_AXIS":"6925.403","BSTAR":"-0.00009349300000","MEAN_ELEMENT_THEORY":"SGP4","REV_AT_EPOCH":"9646","TLE_LINE1":"1 47352U 21005D   22291.83246303 -.00001673  00000-0 -93493-4 0  9995","TIME_SYSTEM":"UTC","GP_ID":"215527342"}];
